NORAD_CAT_ID,OBJECT_NAME,OBJECT_TYPE,EPOCH,MEAN_MOTION,ECCENTRICITY,INCLINATION,RA_OF_ASC_NODE,ARG_OF_PERICENTER,MEAN_ANOMALY,BSTAR,MEAN_MOTION_DOT,MEAN_MOTION_DDOT,TLE_LINE0,TLE_LINE1,TLE_LINE2,SEMIMAJOR_AXIS,PERIOD,APOGEE,PERIGEE,DECAYED
55950.0,STARLINK-5911,PAYLOAD,2024-01-22 06:54:00,14.98329251,0.000263,69.9999,64.6532,265.851,94.2348,2.1383e-05,1.62e-06,0.0,0 STARLINK-5911,1 55950U 23037AN  24022.28750529  .00000162  00000-0  21383-4 0  9997,2 55950  69.9999  64.6532 0002630 265.8510  94.2348 14.98329251 48029,6950.195,96.107,573.888,570.232,0.0
55950.0,STARLINK-5911,PAYLOAD,2024-01-22 11:42:24,14.98329052,0.0002654,69.9999,64.1483,266.7831,93.3024,1.5756e-05,9.5e-07,0.0,0 STARLINK-5911,1 55950U 23037AN  24022.48778568  .00000095  00000-0  15756-4 0  9994,2 55950  69.9999  64.1483 0002654 266.7831  93.3024 14.98329052 48054,6950.196,96.107,573.905,570.216,0.0
55950.0,STARLINK-5911,PAYLOAD,2024-01-23 03:43:45,14.98330496,0.0002685,69.9999,62.4649,264.3545,95.7308,2.1376e-06,-6.7e-07,0.0,0 STARLINK-5911,1 55950U 23037AN  24023.15538462 -.00000067  00000-0  21376-5 0  9992,2 55950  69.9999  62.4649 0002685 264.3545  95.7308 14.98330496 48492,6950.191,96.107,573.922,570.19,0.0
55950.0,STARLINK-5911,PAYLOAD,2024-01-23 06:56:01,14.98330432,0.000269,69.9998,62.1283,264.156,95.9292,1.2931e-06,-7.8e-07,0.0,0 STARLINK-5911,1 55950U 23037AN  24023.28890459 -.00000078  00000-0  12931-5 0  9992,2 55950  69.9998  62.1283 0002690 264.1560  95.9292 14.98330432 48172,6950.192,96.107,573.926,570.187,0.0
55950.0,STARLINK-5911,PAYLOAD,2024-01-23 11:44:25,14.98331651,0.0002661,69.9999,61.6234,264.168,95.9176,1.6615e-05,1.05e-06,0.0,0 STARLINK-5911,1 55950U 23037AN  24023.48918321  .00000105  00000-0  16615-4 0  9995,2 55950  69.9999  61.6234 0002661 264.1680  95.9176 14.98331651 48203,6950.188,96.107,573.902,570.203,0.0
55950.0,STARLINK-5911,PAYLOAD,2024-01-24 03:45:46,14.98327494,0.0002538,70.0004,59.9408,254.3082,105.7797,-7.3534e-06,-1.81e-06,0.0,0 STARLINK-5911,1 55950U 23037AN  24024.15678580 -.00000181  00000-0 -73534-5 0  9990,2 55950  70.0004  59.9408 0002538 254.3082 105.7797 14.98327494 48643,6950.201,96.107,573.83,570.302,0.0
55950.0,STARLINK-5911,PAYLOAD,2024-01-24 11:46:26,14.98326644,0.0002553,70.0004,59.0991,254.7044,105.3832,-1.7596e-05,-3.03e-06,0.0,0 STARLINK-5911,1 55950U 23037AN  24024.49058713 -.00000303  00000-0 -17596-4 0  9998,2 55950  70.0004  59.0991 0002553 254.7044 105.3832 14.98326644 48350,6950.203,96.107,573.843,570.294,0.0
55950.0,STARLINK-5911,PAYLOAD,2024-01-25 03:47:46,14.98332874,0.0002616,70.0003,57.4161,254.1634,105.9237,1.2779e-05,6e-07,0.0,0 STARLINK-5911,1 55950U 23037AN  24025.15818198  .00000060  00000-0  12779-4 0  9999,2 55950  70.0003  57.4161 0002616 254.1634 105.9237 14.98332874 48794,6950.184,96.107,573.867,570.231,0.0
55950.0,STARLINK-5911,PAYLOAD,2024-01-25 11:48:27,14.98330097,0.000268,70.0001,56.574,257.9567,102.1292,-2.094e-05,-3.43e-06,0.0,0 STARLINK-5911,1 55950U 23037AN  24025.49198452 -.00000343  00000-0 -20940-4 0  9995,2 55950  70.0001  56.5740 0002680 257.9567 102.1292 14.98330097 48506,6950.193,96.107,573.92,570.195,0.0
55950.0,STARLINK-5911,PAYLOAD,2024-01-26 03:49:48,14.98329448,0.0002795,69.9997,54.8903,260.5433,99.541,1.0976e-05,3.8e-07,0.0,0 STARLINK-5911,1 55950U 23037AN  24026.15958398  .00000038  00000-0  10976-4 0  9999,2 55950  69.9997  54.8903 0002795 260.5433  99.5410 14.98329448 48945,6950.195,96.107,574.002,570.117,0.0
55950.0,STARLINK-5911,PAYLOAD,2024-01-26 11:50:28,14.98330384,0.0002767,69.9998,54.0485,260.5078,99.5768,2.3022e-05,1.82e-06,0.0,0 STARLINK-5911,1 55950U 23037AN  24026.49338301  .00000182  00000-0  23022-4 0  9998,2 55950  69.9998  54.0485 0002767 260.5078  99.5768 14.98330384 48652,6950.192,96.107,573.98,570.134,0.0
55950.0,STARLINK-5911,PAYLOAD,2024-01-27 03:51:48,14.98330055,0.0002733,69.9998,52.3652,263.6406,96.4442,8.789e-06,1.2e-07,0.0,0 STARLINK-5911,1 55950U 23037AN  24027.16098306  .00000012  00000-0  87890-5 0  9997,2 55950  69.9998  52.3652 0002733 263.6406  96.4442 14.98330055 49090,6950.193,96.107,573.957,570.158,0.0
55950.0,STARLINK-5911,PAYLOAD,2024-01-27 11:52:29,14.98330034,0.0002739,69.9997,51.5229,265.1388,94.9458,7.3789e-06,-5e-08,0.0,0 STARLINK-5911,1 55950U 23037AN  24027.49478309 -.00000005  00000-0  73789-5 0  9993,2 55950  69.9997  51.5229 0002739 265.1388  94.9458 14.98330034 48807,6950.193,96.107,573.961,570.154,0.0
55950.0,STARLINK-5911,PAYLOAD,2024-01-28 05:29:58,14.98329574,0.0002742,69.9997,49.6712,263.7106,96.3741,-1.4376e-05,-2.64e-06,0.0,0 STARLINK-5911,1 55950U 23037AN  24028.22914361 -.00000264  00000-0 -14376-4 0  9992,2 55950  69.9997  49.6712 0002742 263.7106  96.3741 14.98329574 49256,6950.194,96.107,573.965,570.153,0.0
55950.0,STARLINK-5911,PAYLOAD,2024-01-28 11:54:30,14.98329459,0.0002744,69.9998,48.9979,264.4425,95.6421,-1.4734e-05,-2.69e-06,0.0,0 STARLINK-5911,1 55950U 23037AN  24028.49618377 -.00000269  00000-0 -14734-4 0  9992,2 55950  69.9998  48.9979 0002744 264.4425  95.6421 14.98329459 48953,6950.195,96.107,573.967,570.152,0.0
55950.0,STARLINK-5911,PAYLOAD,2024-01-29 10:20:22,14.98331712,0.0002739,69.9999,46.6411,264.258,95.8267,2.6071e-05,2.18e-06,0.0,0 STARLINK-5911,1 55950U 23037AN  24029.43082033  .00000218  00000-0  26071-4 0  9990,2 55950  69.9999  46.6411 0002739 264.2580  95.8267 14.98331712 49433,6950.188,96.107,573.956,570.149,0.0
55950.0,STARLINK-5911,PAYLOAD,2024-01-30 03:57:52,14.98324616,0.0002679,70.0001,44.7899,261.7913,98.2942,-3.1456e-05,-4.68e-06,0.0,0 STARLINK-5911,1 55950U 23037AN  24030.16518666 -.00000468  00000-0 -31456-4 0  9990,2 55950  70.0001  44.7899 0002679 261.7913  98.2942 14.98324616 49548,6950.21,96.107,573.937,570.213,0.0
55950.0,STARLINK-5911,PAYLOAD,2024-01-30 10:22:24,14.98323124,0.0002703,70.0002,44.1167,262.4467,97.6385,-4.8282e-05,-6.69e-06,0.0,0 STARLINK-5911,1 55950U 23037AN  24030.43222900 -.00000669  00000-0 -48282-4 0  9991,2 55950  70.0002  44.1167 0002703 262.4467  97.6385 14.98323124 49245,6950.214,96.107,573.958,570.201,0.0
55950.0,STARLINK-5911,PAYLOAD,2024-01-31 03:59:52,14.98332486,0.000288,69.9998,42.2643,265.2848,94.7982,5.4598e-06,-2.8e-07,0.0,0 STARLINK-5911,1 55950U 23037AN  24031.16658164 -.00000028  00000-0  54598-5 0  9993,2 55950  69.9998  42.2643 0002880 265.2848  94.7982 14.98332486 49695,6950.185,96.107,574.052,570.049,0.0
55950.0,STARLINK-5911,PAYLOAD,2024-01-31 10:24:24,14.98333541,0.0002839,69.9999,41.5912,264.5496,95.5339,2.109e-05,1.59e-06,0.0,0 STARLINK-5911,1 55950U 23037AN  24031.43362006  .00000159  00000-0  21090-4 0  9994,2 55950  69.9999  41.5912 0002839 264.5496  95.5339 14.98333541 49397,6950.182,96.107,574.02,570.074,0.0
55950.0,STARLINK-5911,PAYLOAD,2024-02-01 04:01:53,14.98325088,0.0002884,69.9999,39.74,265.0986,94.9844,2.5743e-05,2.14e-06,0.0,0 STARLINK-5911,1 55950U 23037AN  24032.16798515  .00000214  00000-0  25743-4 0  9994,2 55950  69.9999  39.7400 0002884 265.0986  94.9844 14.98325088 49849,6950.208,96.107,574.078,570.069,0.0
55950.0,STARLINK-5911,PAYLOAD,2024-02-01 10:26:26,14.98325128,0.0002895,69.9999,39.0664,265.7997,94.2832,2.1418e-05,1.63e-06,0.0,0 STARLINK-5911,1 55950U 23037AN  24032.43502588  .00000163  00000-0  21418-4 0  9995,2 55950  69.9999  39.0664 0002895 265.7997  94.2832 14.98325128 49547,6950.208,96.107,574.085,570.061,0.0
55950.0,STARLINK-5911,PAYLOAD,2024-02-02 04:03:54,14.98334862,0.0002933,69.9998,37.2147,267.5622,92.5201,-2.289e-06,-1.2e-06,0.0,0 STARLINK-5911,1 55950U 23037AN  24033.16937992 -.00000120  00000-0 -22890-5 0  9998,2 55950  69.9998  37.2147 0002933 267.5622  92.5201 14.98334862 49995,6950.178,96.107,574.081,570.004,0.0
55950.0,STARLINK-5911,PAYLOAD,2024-02-02 10:28:26,14.98336534,0.000289,69.9998,36.5411,267.403,92.6798,2.1679e-05,1.66e-06,0.0,0 STARLINK-5911,1 55950U 23037AN  24033.43641724  .00000166  00000-0  21679-4 0  9994,2 55950  69.9998  36.5411 0002890 267.4030  92.6798 14.98336534 49692,6950.173,96.107,574.046,570.029,0.0
55950.0,STARLINK-5911,PAYLOAD,2024-02-03 04:05:57,14.98313237,0.0003009,69.9993,34.6896,269.0189,91.0625,-0.00014237,-1.791e-05,0.0,0 STARLINK-5911,1 55950U 23037AN  24034.17079991 -.00001791  00000-0 -14237-3 0  9995,2 55950  69.9993  34.6896 0003009 269.0189  91.0625 14.98313237 50148,6950.245,96.108,574.201,570.018,0.0
55950.0,STARLINK-5911,PAYLOAD,2024-02-03 10:30:29,14.9831012,0.0003205,69.999,34.0166,267.3033,92.776,-0.00017994,-2.238e-05,0.0,0 STARLINK-5911,1 55950U 23037AN  24034.43784556 -.00002238  00000-0 -17994-3 0  9994,2 55950  69.9990  34.0166 0003205 267.3033  92.7760 14.98310120 49847,6950.254,96.108,574.347,569.892,0.0
55950.0,STARLINK-5911,PAYLOAD,2024-02-04 04:07:57,14.98327386,0.0002463,70.0013,32.1669,256.4567,103.6318,-3.0405e-06,-1.29e-06,0.0,0 STARLINK-5911,1 55950U 23037AN  24035.17219581 -.00000129  00000-0 -30405-5 0  9998,2 55950  70.0013  32.1669 0002463 256.4567 103.6318 14.98327386 50293,6950.201,96.107,573.778,570.354,0.0
55950.0,STARLINK-5911,PAYLOAD,2024-02-04 10:32:29,14.98332588,0.0002461,70.0006,31.4904,260.9124,99.1757,4.6653e-05,4.64e-06,0.0,0 STARLINK-5911,1 55950U 23037AN  24035.43923001  .00000464  00000-0  46653-4 0  9997,2 55950  70.0006  31.4904 0002461 260.9124  99.1757 14.98332588 50337,6950.185,96.107,573.76,570.339,0.0
55950.0,STARLINK-5911,PAYLOAD,2024-02-05 08:58:21,14.98333524,0.0002915,69.9996,29.1346,268.2457,91.8368,0.00034624,4.041e-05,0.0,0 STARLINK-5911,1 55950U 23037AN  24036.37385999  .00004041  00000-0  34624-3 0  9998,2 55950  69.9996  29.1346 0002915 268.2457  91.8368 14.98333524 50473,6950.182,96.107,574.073,570.021,0.0
55950.0,STARLINK-5911,PAYLOAD,2024-02-06 04:11:58,14.98336851,0.0002544,70.0006,27.1145,259.003,101.0843,-1.9614e-05,-3.27e-06,0.0,0 STARLINK-5911,1 55950U 23037AN  24037.17498505 -.00000327  00000-0 -19614-4 0  9993,2 55950  70.0006  27.1145 0002544 259.0030 101.0843 14.98336851 50597,6950.172,96.107,573.805,570.269,0.0
